{
 "generated_at": "2026-06-19T09:28:30Z",
 "sources": [
  {
   "name": "CelesTrak",
   "url": "https://celestrak.org/NORAD/elements/",
   "license": "frei verfügbar; Attribution. Ursprünglich USSPACECOM/Space-Track."
  },
  {
   "name": "GCAT (J. McDowell, planet4589.org)",
   "url": "https://planet4589.org/space/gcat/",
   "license": "CC-BY 4.0"
  }
 ],
 "satellites": [
  {
   "norad": 42988,
   "name": "SKYSAT-C10",
   "intl": "2017-068B",
   "group": "resource",
   "gcat": {
    "class": "B",
    "category": "IMG",
    "owner": "PLABST",
    "state": "US"
   },
   "omm": {
    "OBJECT_NAME": "SKYSAT-C10",
    "OBJECT_ID": "2017-068B",
    "EPOCH": "2026-06-19T04:23:53.244960",
    "MEAN_MOTION": 15.34665867,
    "ECCENTRICITY": 0.000111,
    "INCLINATION": 97.4514,
    "RA_OF_ASC_NODE": 307.0495,
    "ARG_OF_PERICENTER": 99.6984,
    "MEAN_ANOMALY": 260.4384,
    "EPHEMERIS_TYPE": 0,
    "CLASSIFICATION_TYPE": "U",
    "NORAD_CAT_ID": 42988,
    "ELEMENT_SET_NO": 999,
    "REV_AT_EPOCH": 48266,
    "BSTAR": 0.00022666,
    "MEAN_MOTION_DOT": 0.00007533,
    "MEAN_MOTION_DDOT": 0
   }
  },
  {
   "norad": 42987,
   "name": "SKYSAT-C11",
   "intl": "2017-068A",
   "group": "resource",
   "gcat": {
    "class": "B",
    "category": "IMG",
    "owner": "PLABST",
    "state": "US"
   },
   "omm": {
    "OBJECT_NAME": "SKYSAT-C11",
    "OBJECT_ID": "2017-068A",
    "EPOCH": "2026-06-18T22:04:45.057216",
    "MEAN_MOTION": 15.57969641,
    "ECCENTRICITY": 0.000057,
    "INCLINATION": 97.4361,
    "RA_OF_ASC_NODE": 318.8258,
    "ARG_OF_PERICENTER": 96.3617,
    "MEAN_ANOMALY": 263.7704,
    "EPHEMERIS_TYPE": 0,
    "CLASSIFICATION_TYPE": "U",
    "NORAD_CAT_ID": 42987,
    "ELEMENT_SET_NO": 999,
    "REV_AT_EPOCH": 48351,
    "BSTAR": 0.00028508,
    "MEAN_MOTION_DOT": 0.00021245,
    "MEAN_MOTION_DDOT": 0
   }
  },
  {
   "norad": 41773,
   "name": "SKYSAT-C2",
   "intl": "2016-058D",
   "group": "resource",
   "gcat": {
    "class": "B",
    "category": "IMG",
    "owner": "TBELLA",
    "state": "US"
   },
   "omm": {
    "OBJECT_NAME": "SKYSAT-C2",
    "OBJECT_ID": "2016-058D",
    "EPOCH": "2026-06-18T19:36:05.225760",
    "MEAN_MOTION": 15.42100866,
    "ECCENTRICITY": 0.00045693,
    "INCLINATION": 97.0165,
    "RA_OF_ASC_NODE": 191.8504,
    "ARG_OF_PERICENTER": 67.4437,
    "MEAN_ANOMALY": 292.7294,
    "EPHEMERIS_TYPE": 0,
    "CLASSIFICATION_TYPE": "U",
    "NORAD_CAT_ID": 41773,
    "ELEMENT_SET_NO": 999,
    "REV_AT_EPOCH": 54530,
    "BSTAR": 0.00022904226,
    "MEAN_MOTION_DOT": 0.00009719,
    "MEAN_MOTION_DDOT": 0
   }
  },
  {
   "norad": 41774,
   "name": "SKYSAT-C3",
   "intl": "2016-058E",
   "group": "resource",
   "gcat": {
    "class": "B",
    "category": "IMG",
    "owner": "TBELLA",
    "state": "US"
   },
   "omm": {
    "OBJECT_NAME": "SKYSAT-C3",
    "OBJECT_ID": "2016-058E",
    "EPOCH": "2026-06-19T01:50:46.961088",
    "MEAN_MOTION": 15.52607591,
    "ECCENTRICITY": 0.0001426,
    "INCLINATION": 96.9,
    "RA_OF_ASC_NODE": 200.8504,
    "ARG_OF_PERICENTER": 99.1434,
    "MEAN_ANOMALY": 260.9982,
    "EPHEMERIS_TYPE": 0,
    "CLASSIFICATION_TYPE": "U",
    "NORAD_CAT_ID": 41774,
    "ELEMENT_SET_NO": 999,
    "REV_AT_EPOCH": 54640,
    "BSTAR": 0.00030566,
    "MEAN_MOTION_DOT": 0.00018719,
    "MEAN_MOTION_DDOT": 0
   }
  },
  {
   "norad": 41771,
   "name": "SKYSAT-C4",
   "intl": "2016-058B",
   "group": "resource",
   "gcat": {
    "class": "B",
    "category": "IMG",
    "owner": "TBELLA",
    "state": "US"
   },
   "omm": {
    "OBJECT_NAME": "SKYSAT-C4",
    "OBJECT_ID": "2016-058B",
    "EPOCH": "2026-06-18T22:44:28.993920",
    "MEAN_MOTION": 15.48631088,
    "ECCENTRICITY": 0.0001543,
    "INCLINATION": 96.9169,
    "RA_OF_ASC_NODE": 191.6461,
    "ARG_OF_PERICENTER": 136.6942,
    "MEAN_ANOMALY": 223.4431,
    "EPHEMERIS_TYPE": 0,
    "CLASSIFICATION_TYPE": "U",
    "NORAD_CAT_ID": 41771,
    "ELEMENT_SET_NO": 999,
    "REV_AT_EPOCH": 54574,
    "BSTAR": 0.00024404,
    "MEAN_MOTION_DOT": 0.00012955,
    "MEAN_MOTION_DDOT": 0
   }
  },
  {
   "norad": 41772,
   "name": "SKYSAT-C5",
   "intl": "2016-058C",
   "group": "resource",
   "gcat": {
    "class": "B",
    "category": "IMG",
    "owner": "TBELLA",
    "state": "US"
   },
   "omm": {
    "OBJECT_NAME": "SKYSAT-C5",
    "OBJECT_ID": "2016-058C",
    "EPOCH": "2026-06-18T23:52:52.631904",
    "MEAN_MOTION": 15.34491256,
    "ECCENTRICITY": 0.0000935,
    "INCLINATION": 97.0465,
    "RA_OF_ASC_NODE": 210.555,
    "ARG_OF_PERICENTER": 298.2824,
    "MEAN_ANOMALY": 61.8326,
    "EPHEMERIS_TYPE": 0,
    "CLASSIFICATION_TYPE": "U",
    "NORAD_CAT_ID": 41772,
    "ELEMENT_SET_NO": 999,
    "REV_AT_EPOCH": 54402,
    "BSTAR": 0.00018428,
    "MEAN_MOTION_DOT": 0.00006082,
    "MEAN_MOTION_DDOT": 0
   }
  },
  {
   "norad": 42992,
   "name": "SKYSAT-C6",
   "intl": "2017-068F",
   "group": "resource",
   "gcat": {
    "class": "B",
    "category": "IMG",
    "owner": "PLABST",
    "state": "US"
   },
   "omm": {
    "OBJECT_NAME": "SKYSAT-C6",
    "OBJECT_ID": "2017-068F",
    "EPOCH": "2026-06-19T02:28:55.174368",
    "MEAN_MOTION": 15.34237733,
    "ECCENTRICITY": 0.000451,
    "INCLINATION": 97.4577,
    "RA_OF_ASC_NODE": 307.7282,
    "ARG_OF_PERICENTER": 132.7401,
    "MEAN_ANOMALY": 227.4222,
    "EPHEMERIS_TYPE": 0,
    "CLASSIFICATION_TYPE": "U",
    "NORAD_CAT_ID": 42992,
    "ELEMENT_SET_NO": 999,
    "REV_AT_EPOCH": 48261,
    "BSTAR": 0.00022512,
    "MEAN_MOTION_DOT": 0.00007382,
    "MEAN_MOTION_DDOT": 0
   }
  },
  {
   "norad": 42991,
   "name": "SKYSAT-C7",
   "intl": "2017-068E",
   "group": "resource",
   "gcat": {
    "class": "B",
    "category": "IMG",
    "owner": "PLABST",
    "state": "US"
   },
   "omm": {
    "OBJECT_NAME": "SKYSAT-C7",
    "OBJECT_ID": "2017-068E",
    "EPOCH": "2026-06-18T21:14:09.565152",
    "MEAN_MOTION": 15.36953935,
    "ECCENTRICITY": 0.0007195,
    "INCLINATION": 97.4543,
    "RA_OF_ASC_NODE": 307.544,
    "ARG_OF_PERICENTER": 101.8108,
    "MEAN_ANOMALY": 258.3943,
    "EPHEMERIS_TYPE": 0,
    "CLASSIFICATION_TYPE": "U",
    "NORAD_CAT_ID": 42991,
    "ELEMENT_SET_NO": 999,
    "REV_AT_EPOCH": 48263,
    "BSTAR": 0.00023147,
    "MEAN_MOTION_DOT": 0.00008289,
    "MEAN_MOTION_DDOT": 0
   }
  },
  {
   "norad": 42990,
   "name": "SKYSAT-C8",
   "intl": "2017-068D",
   "group": "resource",
   "gcat": {
    "class": "B",
    "category": "IMG",
    "owner": "PLABST",
    "state": "US"
   },
   "omm": {
    "OBJECT_NAME": "SKYSAT-C8",
    "OBJECT_ID": "2017-068D",
    "EPOCH": "2026-06-18T21:23:16.185984",
    "MEAN_MOTION": 15.37002946,
    "ECCENTRICITY": 0.0001447,
    "INCLINATION": 97.4532,
    "RA_OF_ASC_NODE": 306.5607,
    "ARG_OF_PERICENTER": 95.7515,
    "MEAN_ANOMALY": 264.3894,
    "EPHEMERIS_TYPE": 0,
    "CLASSIFICATION_TYPE": "U",
    "NORAD_CAT_ID": 42990,
    "ELEMENT_SET_NO": 999,
    "REV_AT_EPOCH": 48257,
    "BSTAR": 0.00022675,
    "MEAN_MOTION_DOT": 0.00008125,
    "MEAN_MOTION_DDOT": 0
   }
  },
  {
   "norad": 42989,
   "name": "SKYSAT-C9",
   "intl": "2017-068C",
   "group": "resource",
   "gcat": {
    "class": "B",
    "category": "IMG",
    "owner": "PLABST",
    "state": "US"
   },
   "omm": {
    "OBJECT_NAME": "SKYSAT-C9",
    "OBJECT_ID": "2017-068C",
    "EPOCH": "2026-06-19T04:28:14.674080",
    "MEAN_MOTION": 15.41603596,
    "ECCENTRICITY": 0.000946,
    "INCLINATION": 97.4434,
    "RA_OF_ASC_NODE": 308.0065,
    "ARG_OF_PERICENTER": 126.7659,
    "MEAN_ANOMALY": 233.4458,
    "EPHEMERIS_TYPE": 0,
    "CLASSIFICATION_TYPE": "U",
    "NORAD_CAT_ID": 42989,
    "ELEMENT_SET_NO": 999,
    "REV_AT_EPOCH": 48306,
    "BSTAR": 0.00027438,
    "MEAN_MOTION_DOT": 0.00011475,
    "MEAN_MOTION_DDOT": 0
   }
  }
 ]
}
